[Satellite]
VERSION=1.1
NAME=GALAXY 26 (G-26)
NICKNAME=GALAXY 26 (G-26)
TLE1=1 25626U 99005A   11059.79321779  .00000090  00000-0  10000-3 0  7895
TLE2=2 25626   0.0063 111.3583 0002656 244.1224 139.0334  1.00272635 44111
